start=new Date('2022-07-09T00:00:00.000Z').valueOf();
sats=[{"OBJECT_NAME":"STARLINK-2681","MEAN_MOTION":"15.06405435","APOAPSIS":"548.216","OBJECT_ID":"2021-040AP","TLE_LINE1":"1 48465U 21040AP  22189.70520876  .00004185  00000-0  29965-3 0  9993","SITE":"AFETR","MEAN_ELEMENT_THEORY":"SGP4","BSTAR":"0.00029965000000","NORAD_CAT_ID":"48465","RCS_SIZE":"LARGE","REV_AT_EPOCH":"6453","TIME_SYSTEM":"UTC","SEMIMAJOR_AXIS":"6925.332","LAUNCH_DATE":"2021-05-09","ARG_OF_PERICENTER":"73.8266","COUNTRY_CODE":"US","DECAY_DATE":null,"CENTER_NAME":"EARTH","PERIAPSIS":"546.177","REF_FRAME":"TEME","OBJECT_TYPE":"PAYLOAD","TLE_LINE2":"2 48465  53.0540  87.0449 0001472  73.8266 286.2885 15.06405435 64534","MEAN_MOTION_DDOT":"0.0000000000000","ECCENTRICITY":"0.00014720","INCLINATION":"53.0540","MEAN_ANOMALY":"286.2885","ELEMENT_SET_NO":"999","FILE":"3510087","PERIOD":"95.592","EPHEMERIS_TYPE":"0","RA_OF_ASC_NODE":"87.0449","CLASSIFICATION_TYPE":"U","MEAN_MOTION_DOT":"0.00004185","GP_ID":"207695234","EPOCH":"2022-07-08T16:55:30.036864"},{"APOAPSIS":"548.479","MEAN_MOTION":"15.06410905","OBJECT_NAME":"STARLINK-2687","BSTAR":"0.00017553000000","MEAN_ELEMENT_THEORY":"SGP4","SITE":"AFETR","TLE_LINE1":"1 48466U 21040AQ  22189.75680459  .00002335  00000-0  17553-3 0  9998","OBJECT_ID":"2021-040AQ","TIME_SYSTEM":"UTC","SEMIMAJOR_AXIS":"6925.315","REV_AT_EPOCH":"6454","NORAD_CAT_ID":"48466","RCS_SIZE":"LARGE","COUNTRY_CODE":"US","LAUNCH_DATE":"2021-05-09","ARG_OF_PERICENTER":"64.4328","REF_FRAME":"TEME","CENTER_NAME":"EARTH","PERIAPSIS":"545.882","DECAY_DATE":null,"INCLINATION":"53.0542","MEAN_MOTION_DDOT":"0.0000000000000","ECCENTRICITY":"0.00018750","TLE_LINE2":"2 48466  53.0542  86.8177 0001875  64.4328 295.6854 15.06410905 64543","OBJECT_TYPE":"PAYLOAD","FILE":"3510087","MEAN_ANOMALY":"295.6854","ELEMENT_SET_NO":"999","EPOCH":"2022-07-08T18:09:47.916576","CLASSIFICATION_TYPE":"U","RA_OF_ASC_NODE":"86.8177","MEAN_MOTION_DOT":"0.00002335","GP_ID":"207694984","EPHEMERIS_TYPE":"0","PERIOD":"95.591"},{"SEMIMAJOR_AXIS":"6925.281","TIME_SYSTEM":"UTC","REV_AT_EPOCH":"6452","NORAD_CAT_ID":"48467","RCS_SIZE":"LARGE","COUNTRY_CODE":"US","LAUNCH_DATE":"2021-05-09","ARG_OF_PERICENTER":"75.2726","APOAPSIS":"548.381","MEAN_MOTION":"15.06421937","OBJECT_NAME":"STARLINK-2659","BSTAR":"0.00015884000000","MEAN_ELEMENT_THEORY":"SGP4","SITE":"AFETR","OBJECT_ID":"2021-040AR","TLE_LINE1":"1 48467U 21040AR  22189.64990743  .00002086  00000-0  15884-3 0  9995","FILE":"3510087","MEAN_ANOMALY":"284.8461","ELEMENT_SET_NO":"999","EPOCH":"2022-07-08T15:35:52.001952","CLASSIFICATION_TYPE":"U","RA_OF_ASC_NODE":"87.2969","MEAN_MOTION_DOT":"0.00002086","GP_ID":"207694233","EPHEMERIS_TYPE":"0","PERIOD":"95.591","REF_FRAME":"TEME","CENTER_NAME":"EARTH","PERIAPSIS":"545.912","DECAY_DATE":null,"INCLINATION":"53.0556","MEAN_MOTION_DDOT":"0.0000000000000","ECCENTRICITY":"0.00017830","TLE_LINE2":"2 48467  53.0556  87.2969 0001783  75.2726 284.8461 15.06421937 64522","OBJECT_TYPE":"PAYLOAD"},{"REF_FRAME":"TEME","DECAY_DATE":null,"PERIAPSIS":"545.900","CENTER_NAME":"EARTH","ECCENTRICITY":"0.00018730","MEAN_MOTION_DDOT":"0.0000000000000","INCLINATION":"53.0557","OBJECT_TYPE":"PAYLOAD","TLE_LINE2":"2 48468  53.0557  86.7899 0001873  69.0664 291.0525 15.06405431 64546","FILE":"3510087","MEAN_ANOMALY":"291.0525","ELEMENT_SET_NO":"999","GP_ID":"207694483","MEAN_MOTION_DOT":"0.00004616","CLASSIFICATION_TYPE":"U","RA_OF_ASC_NODE":"86.7899","EPOCH":"2022-07-08T18:20:26.200896","PERIOD":"95.592","EPHEMERIS_TYPE":"0","MEAN_MOTION":"15.06405431","APOAPSIS":"548.494","OBJECT_NAME":"STARLINK-2685","MEAN_ELEMENT_THEORY":"SGP4","BSTAR":"0.00032851000000","OBJECT_ID":"2021-040AS","TLE_LINE1":"1 48468U 21040AS  22189.76419214  .00004616  00000-0  32851-3 0  9992","SITE":"AFETR","TIME_SYSTEM":"UTC","SEMIMAJOR_AXIS":"6925.332","NORAD_CAT_ID":"48468","RCS_SIZE":"LARGE","REV_AT_EPOCH":"6454","ARG_OF_PERICENTER":"69.0664","LAUNCH_DATE":"2021-05-09","COUNTRY_CODE":"US"},{"INCLINATION":"53.0542","ECCENTRICITY":"0.00014050","MEAN_MOTION_DDOT":"0.0000000000000","TLE_LINE2":"2 48469  53.0542  87.0120 0001405  91.9965 268.1185 15.06406544 64533","OBJECT_TYPE":"PAYLOAD","REF_FRAME":"TEME","PERIAPSIS":"546.220","CENTER_NAME":"EARTH","DECAY_DATE":null,"EPOCH":"2022-07-08T17:06:06.172416","GP_ID":"207694734","MEAN_MOTION_DOT":"0.00004262","RA_OF_ASC_NODE":"87.0120","CLASSIFICATION_TYPE":"U","EPHEMERIS_TYPE":"0","PERIOD":"95.592","FILE":"3510087","MEAN_ANOMALY":"268.1185","ELEMENT_SET_NO":"999","BSTAR":"0.00030482000000","MEAN_ELEMENT_THEORY":"SGP4","SITE":"AFETR","OBJECT_ID":"2021-040AT","TLE_LINE1":"1 48469U 21040AT  22189.71257144  .00004262  00000-0  30482-3 0  9995","APOAPSIS":"548.167","MEAN_MOTION":"15.06406544","OBJECT_NAME":"STARLINK-2661","COUNTRY_CODE":"US","ARG_OF_PERICENTER":"91.9965","LAUNCH_DATE":"2021-05-09","TIME_SYSTEM":"UTC","SEMIMAJOR_AXIS":"6925.329","REV_AT_EPOCH":"6453","RCS_SIZE":"LARGE","NORAD_CAT_ID":"48469"},{"ELEMENT_SET_NO":"999","MEAN_ANOMALY":"294.9577","FILE":"3510087","PERIOD":"95.590","EPHEMERIS_TYPE":"0","GP_ID":"207695485","MEAN_MOTION_DOT":"0.00007693","RA_OF_ASC_NODE":"86.4268","CLASSIFICATION_TYPE":"U","EPOCH":"2022-07-08T20:10:31.008288","DECAY_DATE":null,"PERIAPSIS":"545.699","CENTER_NAME":"EARTH","REF_FRAME":"TEME","OBJECT_TYPE":"PAYLOAD","TLE_LINE2":"2 48470  53.0539  86.4268 0002051  65.1625 294.9577 15.06430856 64547","ECCENTRICITY":"0.00020510","MEAN_MOTION_DDOT":"0.0000000000000","INCLINATION":"53.0539","NORAD_CAT_ID":"48470","RCS_SIZE":"LARGE","REV_AT_EPOCH":"6454","TIME_SYSTEM":"UTC","SEMIMAJOR_AXIS":"6925.254","ARG_OF_PERICENTER":"65.1625","LAUNCH_DATE":"2021-05-09","COUNTRY_CODE":"US","OBJECT_NAME":"STARLINK-2675","MEAN_MOTION":"15.06430856","APOAPSIS":"548.539","TLE_LINE1":"1 48470U 21040AU  22189.84063667  .00007693  00000-0  53434-3 0  9999","OBJECT_ID":"2021-040AU","SITE":"AFETR","MEAN_ELEMENT_THEORY":"SGP4","BSTAR":"0.00053434000000"},{"TIME_SYSTEM":"UTC","SEMIMAJOR_AXIS":"6925.317","NORAD_CAT_ID":"48471","RCS_SIZE":"LARGE","REV_AT_EPOCH":"6453","LAUNCH_DATE":"2021-05-09","ARG_OF_PERICENTER":"73.8395","COUNTRY_CODE":"US","MEAN_MOTION":"15.06410257","APOAPSIS":"548.614","OBJECT_NAME":"STARLINK-2684","MEAN_ELEMENT_THEORY":"SGP4","BSTAR":"0.00032518000000","OBJECT_ID":"2021-040AV","TLE_LINE1":"1 48471U 21040AV  22189.76785576  .00004566  00000-0  32518-3 0  9997","SITE":"AFETR","FILE":"3510087","MEAN_ANOMALY":"286.2821","ELEMENT_SET_NO":"999","RA_OF_ASC_NODE":"86.7583","CLASSIFICATION_TYPE":"U","GP_ID":"207693733","MEAN_MOTION_DOT":"0.00004566","EPOCH":"2022-07-08T18:25:42.737664","PERIOD":"95.591","EPHEMERIS_TYPE":"0","REF_FRAME":"TEME","DECAY_DATE":null,"CENTER_NAME":"EARTH","PERIAPSIS":"545.750","MEAN_MOTION_DDOT":"0.0000000000000","ECCENTRICITY":"0.00020680","INCLINATION":"53.0544","OBJECT_TYPE":"PAYLOAD","TLE_LINE2":"2 48471  53.0544  86.7583 0002068  73.8395 286.2821 15.06410257 64533"},{"DECAY_DATE":null,"CENTER_NAME":"EARTH","PERIAPSIS":"545.873","REF_FRAME":"TEME","OBJECT_TYPE":"PAYLOAD","TLE_LINE2":"2 48472  53.0556  86.5553 0001857  72.5094 287.6098 15.06417950 64537","MEAN_MOTION_DDOT":"0.0000000000000","ECCENTRICITY":"0.00018570","INCLINATION":"53.0556","ELEMENT_SET_NO":"999","MEAN_ANOMALY":"287.6098","FILE":"3510087","PERIOD":"95.591","EPHEMERIS_TYPE":"0","RA_OF_ASC_NODE":"86.5553","CLASSIFICATION_TYPE":"U","MEAN_MOTION_DOT":"0.00004127","GP_ID":"207693983","EPOCH":"2022-07-08T19:34:43.233888","OBJECT_NAME":"STARLINK-2722","MEAN_MOTION":"15.06417950","APOAPSIS":"548.445","TLE_LINE1":"1 48472U 21040AW  22189.81577817  .00004127  00000-0  29566-3 0  9993","OBJECT_ID":"2021-040AW","SITE":"AFETR","MEAN_ELEMENT_THEORY":"SGP4","BSTAR":"0.00029566000000","RCS_SIZE":"LARGE","NORAD_CAT_ID":"48472","REV_AT_EPOCH":"6453","SEMIMAJOR_AXIS":"6925.294","TIME_SYSTEM":"UTC","LAUNCH_DATE":"2021-05-09","ARG_OF_PERICENTER":"72.5094","COUNTRY_CODE":"US"},{"PERIAPSIS":"545.208","CENTER_NAME":"EARTH","DECAY_DATE":null,"REF_FRAME":"TEME","TLE_LINE2":"2 48473  53.0530  86.3743 0002826  73.3054 286.8245 15.06415789 64545","OBJECT_TYPE":"PAYLOAD","INCLINATION":"53.0530","ECCENTRICITY":"0.00028260","MEAN_MOTION_DDOT":"0.0000000000000","MEAN_ANOMALY":"286.8245","ELEMENT_SET_NO":"999","FILE":"3510087","EPHEMERIS_TYPE":"0","PERIOD":"95.591","EPOCH":"2022-07-08T20:27:48.169440","GP_ID":"207695235","MEAN_MOTION_DOT":"0.00004617","CLASSIFICATION_TYPE":"U","RA_OF_ASC_NODE":"86.3743","OBJECT_NAME":"STARLINK-2658","APOAPSIS":"549.122","MEAN_MOTION":"15.06415789","SITE":"AFETR","OBJECT_ID":"2021-040AX","TLE_LINE1":"1 48473U 21040AX  22189.85264085  .00004617  00000-0  32852-3 0  9994","BSTAR":"0.00032852000000","MEAN_ELEMENT_THEORY":"SGP4","REV_AT_EPOCH":"6454","RCS_SIZE":"LARGE","NORAD_CAT_ID":"48473","SEMIMAJOR_AXIS":"6925.300","TIME_SYSTEM":"UTC","COUNTRY_CODE":"US","ARG_OF_PERICENTER":"73.3054","LAUNCH_DATE":"2021-05-09"},{"TLE_LINE2":"2 48474  53.0565  86.5372 0001539  79.4871 280.6291 15.06402660 64534","OBJECT_TYPE":"PAYLOAD","INCLINATION":"53.0565","ECCENTRICITY":"0.00015390","MEAN_MOTION_DDOT":"0.0000000000000","PERIAPSIS":"546.140","CENTER_NAME":"EARTH","DECAY_DATE":null,"REF_FRAME":"TEME","EPHEMERIS_TYPE":"0","PERIOD":"95.592","EPOCH":"2022-07-08T19:40:03.187776","MEAN_MOTION_DOT":"0.00002733","GP_ID":"207694985","CLASSIFICATION_TYPE":"U","RA_OF_ASC_NODE":"86.5372","MEAN_ANOMALY":"280.6291","ELEMENT_SET_NO":"999","FILE":"3510087","SITE":"AFETR","OBJECT_ID":"2021-040AY","TLE_LINE1":"1 48474U 21040AY  22189.81948134  .00002733  00000-0  20230-3 0  9999","BSTAR":"0.00020230000000","MEAN_ELEMENT_THEORY":"SGP4","OBJECT_NAME":"STARLINK-2697","APOAPSIS":"548.271","MEAN_MOTION":"15.06402660","COUNTRY_CODE":"US","ARG_OF_PERICENTER":"79.4871","LAUNCH_DATE":"2021-05-09","REV_AT_EPOCH":"6453","RCS_SIZE":"LARGE","NORAD_CAT_ID":"48474","TIME_SYSTEM":"UTC","SEMIMAJOR_AXIS":"6925.340"}];
